MALLIGYONG-1            
1 58400U 23179A   24277.56451932  .00013752  00000+0  62118-3 0  9994
2 58400  97.3853 162.5249 0010102  61.0725 299.1523 15.21033251 48206
